"plz","ort","bundesland","landkreis","lon","lat"
"01067","Dresden","Sachsen","Kreisfreie Stadt Dresden",13.73814,51.05013
"01069","Dresden","Sachsen","Kreisfreie Stadt Dresden",13.73659,51.04135
"01097","Dresden","Sachsen","Kreisfreie Stadt Dresden",13.75153,51.06675
"01099","Dresden","Sachsen","Kreisfreie Stadt Dresden",13.76386,51.0694
"01108","Dresden","Sachsen","Kreisfreie Stadt Dresden",13.77882,51.13996
"01109","Dresden","Sachsen","Kreisfreie Stadt Dresden",13.76639,51.10629
"01127","Dresden","Sachsen","Kreisfreie Stadt Dresden",13.73177,51.07632
"01129","Dresden","Sachsen","Kreisfreie Stadt Dresden",13.72127,51.08375
"01139","Dresden","Sachsen","Kreisfreie Stadt Dresden",13.69174,51.07796
"01156","Dresden","Sachsen","Kreisfreie Stadt Dresden",13.62312,51.06354
"01157","Dresden","Sachsen","Kreisfreie Stadt Dresden",13.67099,51.05055
"01159","Dresden","Sachsen","Kreisfreie Stadt Dresden",13.70014,51.05282
"01169","Dresden","Sachsen","Kreisfreie Stadt Dresden",13.67005,51.03661
"01187","Dresden","Sachsen","Kreisfreie Stadt Dresden",13.71536,51.03366
"01189","Dresden","Sachsen","Kreisfreie Stadt Dresden",13.71077,51.02008
"01217","Dresden","Sachsen","Kreisfreie Stadt Dresden",13.7538,51.02646
"01219","Dresden","Sachsen","Kreisfreie Stadt Dresden",13.76388,51.03222
"01237","Dresden","Sachsen","Kreisfreie Stadt Dresden",13.80388,51.02322
"01239","Dresden","Sachsen","Kreisfreie Stadt Dresden",13.81813,51.00694
"01257","Dresden","Sachsen","Kreisfreie Stadt Dresden",13.84074,51.01201
"01259","Dresden","Sachsen","Kreisfreie Stadt Dresden",13.84364,50.99929
"01277","Dresden","Sachsen","Kreisfreie Stadt Dresden",13.80537,51.04351
"01279","Dresden","Sachsen","Kreisfreie Stadt Dresden",13.84333,51.03704
"01307","Dresden","Sachsen","Kreisfreie Stadt Dresden",13.77169,51.05141
"01309","Dresden","Sachsen","Kreisfreie Stadt Dresden",13.78854,51.0526
"01324","Dresden","Sachsen","Kreisfreie Stadt Dresden",13.82855,51.05834
"01326","Dresden","Sachsen","Kreisfreie Stadt Dresden",13.84033,51.08272
"01328","Dresden","Sachsen","Kreisfreie Stadt Dresden",13.88206,51.05018
"01445","Radebeul","Sachsen","Landkreis Meißen",13.66416,51.10266
"01454","Radeberg","Sachsen","Landkreis Bautzen",13.92131,51.11586
"01458","Ottendorf-Okrilla","Sachsen","Landkreis Bautzen",13.8239,51.17182
"01465","Dresden","Sachsen","Kreisfreie Stadt Dresden",13.70425,51.10706
"01468","Moritzburg","Sachsen","Landkreis Meißen",13.68111,51.16333
"01471","Radeburg","Sachsen","Landkreis Meißen",13.725,51.21389
"01558","Großenhain","Sachsen","Landkreis Meißen",13.52972,51.29056
"01561","Ebersbach","Sachsen","Landkreis Meißen",13.66667,51.26667
"01587","Riesa","Sachsen","Landkreis Meißen",13.3,51.3
"01589","Riesa","Sachsen","Landkreis Meißen",13.3,51.3
"01591","Riesa","Sachsen","Landkreis Meißen",13.28333,51.3
"01594","Stauchitz","Sachsen","Landkreis Meißen",13.18333,51.25
"01609","Gröditz","Sachsen","Landkreis Meißen",13.45,51.41667
"01612","Glaubitz","Sachsen","Landkreis Meißen",13.38333,51.35
"01616","Strehla","Sachsen","Landkreis Meißen",13.23333,51.35
"01619","Zeithain","Sachsen","Landkreis Meißen",13.33333,51.38333
"01623","Klipphausen","Sachsen","Landkreis Meißen",13.53222,51.08556
"01640","Coswig","Sachsen","Landkreis Meißen",13.58333,51.13333
"01662","Meißen","Sachsen","Landkreis Meißen",13.47778,51.16389
"01665","Klipphausen","Sachsen","Landkreis Meißen",13.53222,51.08556
"01683","Nossen","Sachsen","Landkreis Meißen",13.3,51.05
"01689","Weinböhla","Sachsen","Landkreis Meißen",13.56667,51.16667
"01705","Freital","Sachsen","Landkreis Sächsische Schweiz-Osterzgebirge",13.65,51.01667
"01723","Wilsdruff","Sachsen","Landkreis Sächsische Schweiz-Osterzgebirge",13.53333,51.05
"01728","Bannewitz","Sachsen","Landkreis Sächsische Schweiz-Osterzgebirge",13.71667,50.98333
"01731","Kreischa","Sachsen","Landkreis Sächsische Schweiz-Osterzgebirge",13.75,50.96667
"01734","Rabenau","Sachsen","Landkreis Sächsische Schweiz-Osterzgebirge",13.65,50.96667
"01737","Tharandt","Sachsen","Landkreis Sächsische Schweiz-Osterzgebirge",13.58333,50.98333
"01738","Dorfhain","Sachsen","Landkreis Sächsische Schweiz-Osterzgebirge",13.56667,50.93333
"01744","Dippoldiswalde","Sachsen","Landkreis Sächsische Schweiz-Osterzgebirge",13.66667,50.9
"01762","Hartmannsdorf-Reichenau","Sachsen","Landkreis Sächsische Schweiz-Osterzgebirge",13.55,50.85
"01768","Glashütte","Sachsen","Landkreis Sächsische Schweiz-Osterzgebirge",13.78333,50.85
"01773","Altenberg","Sachsen","Landkreis Sächsische Schweiz-Osterzgebirge",13.76028,50.76556
"01774","Klingenberg","Sachsen","Landkreis Sächsische Schweiz-Osterzgebirge",13.51667,50.91667
"01776","Hermsdorf/Erzgeb.","Sachsen","Landkreis Sächsische Schweiz-Osterzgebirge",13.65,50.76667
"01778","Geising","Sachsen","Landkreis Sächsische Schweiz-Osterzgebirge",13.78333,50.75
"01796","Pirna","Sachsen","Landkreis Sächsische Schweiz-Osterzgebirge",13.94194,50.96222
"01809","Dohna","Sachsen","Landkreis Sächsische Schweiz-Osterzgebirge",13.85,50.95
"01814","Bad Schandau","Sachsen","Landkreis Sächsische Schweiz-Osterzgebirge",14.15,50.91667
"01816","Bad Gottleuba-Berggießhübel","Sachsen","Landkreis Sächsische Schweiz-Osterzgebirge",13.95,50.86667
"01819","Bahretal","Sachsen","Landkreis Sächsische Schweiz-Osterzgebirge",13.91667,50.9
"01822","Bad Gottleuba-Berggießhübel","Sachsen","Landkreis Sächsische Schweiz-Osterzgebirge",13.95,50.86667
"01824","Königstein/Sächs. Schw.","Sachsen","Landkreis Sächsische Schweiz-Osterzgebirge",14.06667,50.91667
"01825","Lohmen","Sachsen","Landkreis Sächsische Schweiz-Osterzgebirge",14,51
"01829","Stadt Wehlen","Sachsen","Landkreis Sächsische Schweiz-Osterzgebirge",14.03333,50.95
"00000","Nicht zuzuordnen","Nicht zuzuordnen","Nicht zuzuordnen",10,51
"01833","Stolpen","Sachsen","Landkreis Sächsische Schweiz-Osterzgebirge",14.08333,51.05
"01844","Neustadt in Sachsen","Sachsen","Landkreis Sächsische Schweiz-Osterzgebirge",14.21667,51.03333
"01847","Lohmen","Sachsen","Landkreis Sächsische Schweiz-Osterzgebirge",14,51
"01848","Hohnstein","Sachsen","Landkreis Sächsische Schweiz-Osterzgebirge",14.11667,50.98333
"01855","Sebnitz","Sachsen","Landkreis Sächsische Schweiz-Osterzgebirge",14.28333,50.96667
"01877","Bischofswerda","Sachsen","Landkreis Bautzen",14.18333,51.13333
"01896","Ohorn","Sachsen","Landkreis Bautzen",14.03333,51.16667
"01900","Großröhrsdorf","Sachsen","Landkreis Bautzen",14.01667,51.15
"01904","Neukirch/Lausitz","Sachsen","Landkreis Bautzen",14.3,51.1
"01906","Burkau","Sachsen","Landkreis Bautzen",14.11667,51.16667
"01909","Frankenthal","Sachsen","Landkreis Bautzen",14.1,51.15
"01917","Kamenz","Sachsen","Landkreis Bautzen",14.1,51.26667
"01920","Elstra","Sachsen","Landkreis Bautzen",14.13333,51.21667
"01936","Königsbrück","Sachsen","Landkreis Bautzen",13.9,51.26667
"01945","Grünewald","Brandenburg","Landkreis Oberspreewald-Lausitz",14.01667,51.4
"01968","Senftenberg","Brandenburg","Landkreis Oberspreewald-Lausitz",14,51.51667
"01979","Lauchhammer","Brandenburg","Landkreis Oberspreewald-Lausitz",13.78333,51.48333
"01983","Großräschen","Brandenburg","Landkreis Oberspreewald-Lausitz",14.00444,51.58167
"01987","Schwarzheide","Brandenburg","Landkreis Oberspreewald-Lausitz",13.86667,51.48333
"01990","Großkmehlen","Brandenburg","Landkreis Oberspreewald-Lausitz",13.71667,51.4
"01993","Schipkau","Brandenburg","Landkreis Oberspreewald-Lausitz",13.91667,51.55
"01994","Schipkau","Brandenburg","Landkreis Oberspreewald-Lausitz",13.91667,51.55
"01996","Schipkau","Brandenburg","Landkreis Oberspreewald-Lausitz",13.91667,51.55
"01998","Klettwitz","Brandenburg","Landkreis Oberspreewald-Lausitz",13.9,51.55
"02625","Bautzen","Sachsen","Landkreis Bautzen",14.42361,51.18167
"02627","Hochkirch","Sachsen","Landkreis Bautzen",14.58333,51.13333
"02633","Gaußig","Sachsen","Landkreis Bautzen",14.36667,51.13333
"02681","Schirgiswalde-Kirschau","Sachsen","Landkreis Bautzen",14.43333,51.08333
"02689","Sohland a. d. Spree","Sachsen","Landkreis Bautzen",14.46667,51.05
"02692","Doberschau-Gaußig","Sachsen","Landkreis Bautzen",14.36667,51.13333
"02694","Großdubrau","Sachsen","Landkreis Bautzen",14.46667,51.25
"02699","Königswartha","Sachsen","Landkreis Bautzen",14.33333,51.3
"02708","Löbau","Sachsen","Landkreis Görlitz",14.66667,51.1
"02727","Neusalza-Spremberg","Sachsen","Landkreis Görlitz",14.53333,51.03333
"02730","Ebersbach-Neugersdorf","Sachsen","Landkreis Görlitz",14.58333,51.01667
"02733","Cunewalde","Sachsen","Landkreis Bautzen",14.51667,51.1
"02736","Beiersdorf","Sachsen","Landkreis Görlitz",14.55,51.08333
"02739","Oberschöna","Sachsen","Landkreis Mittelsachsen",13.25,50.91667
"02742","Neusalza-Spremberg","Sachsen","Landkreis Görlitz",14.53333,51.03333
"02747","Herrnhut","Sachsen","Landkreis Görlitz",14.75,51.01667
"02748","Bernstadt a. d. Eigen","Sachsen","Landkreis Görlitz",14.83333,51.05
"02763","Zittau","Sachsen","Landkreis Görlitz",14.8075,50.89611
"02779","Großschönau","Sachsen","Landkreis Görlitz",14.66667,50.9
"02782","Seifhennersdorf","Sachsen","Landkreis Görlitz",14.61667,50.93333
"02785","Olbersdorf","Sachsen","Landkreis Görlitz",14.78333,50.86667
"02788","Schönau-Berzdorf a. d. Eigen","Sachsen","Landkreis Görlitz",14.85,51.01667
"02791","Oderwitz","Sachsen","Landkreis Görlitz",14.73333,50.95
"02794","Leutersdorf","Sachsen","Landkreis Görlitz",14.65,50.95
"02797","Kurort Oybin","Sachsen","Landkreis Görlitz",14.75,50.85
"02799","Großschönau","Sachsen","Landkreis Görlitz",14.66667,50.9
"02826","Görlitz","Sachsen","Landkreis Görlitz",14.98694,51.15222
"02827","Görlitz","Sachsen","Landkreis Görlitz",14.98694,51.15222
"02828","Görlitz","Sachsen","Landkreis Görlitz",14.98694,51.15222
"02829","Königshain","Sachsen","Landkreis Görlitz",14.83333,51.16667
"02894","Reichenbach/O.L.","Sachsen","Landkreis Görlitz",14.8,51.15
"02899","Ostritz","Sachsen","Landkreis Görlitz",14.93333,51.01667
"02906","Niesky","Sachsen","Landkreis Görlitz",14.81667,51.28333
"02923","Hähnichen","Sachsen","Landkreis Görlitz",14.85,51.35
"02929","Rothenburg/O.L.","Sachsen","Landkreis Görlitz",14.96667,51.33333
"02943","Weißwasser/O.L.","Sachsen","Landkreis Görlitz",14.63333,51.5
"02953","Bad Muskau","Sachsen","Landkreis Görlitz",14.71667,51.55
"02956","Rietschen","Sachsen","Landkreis Görlitz",14.78333,51.41667
"02957","Krauschwitz","Sachsen","Landkreis Görlitz",14.7,51.51667
"02959","Schleife","Sachsen","Landkreis Görlitz",14.55,51.53333
"02977","Hoyerswerda","Sachsen","Landkreis Bautzen",14.25,51.43333
"02979","Elsterheide","Sachsen","Landkreis Bautzen",14.18333,51.48333
"02991","Laubusch","Sachsen","Landkreis Bautzen",14.2,51.48333
"02994","Bernsdorf","Sachsen","Landkreis Bautzen",14.06667,51.36667
"02997","Wittichenau","Sachsen","Landkreis Bautzen",14.25,51.38333
"02999","Lohsa","Sachsen","Landkreis Bautzen",14.4,51.38333
"03042","Cottbus","Brandenburg","Kreisfreie Stadt Cottbus",14.33333,51.76667
"03044","Cottbus","Brandenburg","Kreisfreie Stadt Cottbus",14.33333,51.76667
"03046","Cottbus","Brandenburg","Kreisfreie Stadt Cottbus",14.33333,51.76667
"03048","Cottbus","Brandenburg","Kreisfreie Stadt Cottbus",14.33333,51.76667
"03050","Cottbus","Brandenburg","Kreisfreie Stadt Cottbus",14.33333,51.76667
"03051","Cottbus","Brandenburg","Kreisfreie Stadt Cottbus",14.33333,51.76667
"03052","Cottbus","Brandenburg","Kreisfreie Stadt Cottbus",14.33333,51.76667
"03053","Cottbus","Brandenburg","Kreisfreie Stadt Cottbus",14.33333,51.76667
"03054","Cottbus","Brandenburg","Kreisfreie Stadt Cottbus",14.33333,51.76667
"03055","Cottbus","Brandenburg","Kreisfreie Stadt Cottbus",14.33333,51.76667
"03058","Neuhausen/Spree","Brandenburg","Landkreis Spree-Neiße",14.45,51.7
"03096","Burg (Spreewald)","Brandenburg","Landkreis Spree-Neiße",14.15,51.83333
"03099","Kolkwitz","Brandenburg","Landkreis Spree-Neiße",14.25,51.75
"03103","Neupetershain","Brandenburg","Landkreis Oberspreewald-Lausitz",14.16667,51.61667
"03116","Drebkau","Brandenburg","Landkreis Spree-Neiße",14.21667,51.65
"03119","Welzow","Brandenburg","Landkreis Spree-Neiße",14.36667,51.58333
"03130","Spremberg","Brandenburg","Landkreis Spree-Neiße",14.38333,51.56667
"03149","Forst (Lausitz)","Brandenburg","Landkreis Spree-Neiße",14.63333,51.73333
"03159","Döbern","Brandenburg","Landkreis Spree-Neiße",14.6,51.61667
"03172","Guben","Brandenburg","Landkreis Spree-Neiße",14.71667,51.95
"03185","Peitz","Brandenburg","Landkreis Spree-Neiße",14.41667,51.85
"03197","Jänschwalde","Brandenburg","Landkreis Spree-Neiße",14.51667,51.86667
"03205","Calau","Brandenburg","Landkreis Oberspreewald-Lausitz",13.95,51.75
"03222","Lübbenau/Spreewald","Brandenburg","Landkreis Oberspreewald-Lausitz",14,51.86667
"03226","Vetschau/Spreewald","Brandenburg","Landkreis Oberspreewald-Lausitz",14.06667,51.78333
"03238","Finsterwalde","Brandenburg","Landkreis Elbe-Elster",13.71667,51.63333
"03246","Crinitz","Brandenburg","Landkreis Elbe-Elster",13.78333,51.71667
"03249","Sonnewalde","Brandenburg","Landkreis Elbe-Elster",13.65,51.68333
"03253","Doberlug-Kirchhain","Brandenburg","Landkreis Elbe-Elster",13.56667,51.61667
"04103","Leipzig","Sachsen","Kreisfreie Stadt Leipzig",12.38139,51.33417
"04105","Leipzig","Sachsen","Kreisfreie Stadt Leipzig",12.36833,51.34611
"04107","Leipzig","Sachsen","Kreisfreie Stadt Leipzig",12.36972,51.3325
"04109","Leipzig","Sachsen","Kreisfreie Stadt Leipzig",12.37361,51.34139
"04129","Leipzig","Sachsen","Kreisfreie Stadt Leipzig",12.39278,51.37389
"04155","Leipzig","Sachsen","Kreisfreie Stadt Leipzig",12.36556,51.36111
"04157","Leipzig","Sachsen","Kreisfreie Stadt Leipzig",12.345,51.37361
"04158","Leipzig","Sachsen","Kreisfreie Stadt Leipzig",12.32139,51.40111
"04159","Leipzig","Sachsen","Kreisfreie Stadt Leipzig",12.31639,51.38056
"04177","Leipzig","Sachsen","Kreisfreie Stadt Leipzig",12.32139,51.34694
"04178","Leipzig","Sachsen","Kreisfreie Stadt Leipzig",12.28833,51.33806
"04179","Leipzig","Sachsen","Kreisfreie Stadt Leipzig",12.29806,51.34722
"04205","Leipzig","Sachsen","Kreisfreie Stadt Leipzig",12.26806,51.30917
"04207","Leipzig","Sachsen","Kreisfreie Stadt Leipzig",12.27833,51.32167
"04209","Leipzig","Sachsen","Kreisfreie Stadt Leipzig",12.25333,51.33139
"04229","Leipzig","Sachsen","Kreisfreie Stadt Leipzig",12.33611,51.32194
"04249","Leipzig","Sachsen","Kreisfreie Stadt Leipzig",12.31,51.27583
"04275","Leipzig","Sachsen","Kreisfreie Stadt Leipzig",12.38028,51.32361
"04277","Leipzig","Sachsen","Kreisfreie Stadt Leipzig",12.37833,51.30806
"04279","Leipzig","Sachsen","Kreisfreie Stadt Leipzig",12.39194,51.285
"04288","Leipzig","Sachsen","Kreisfreie Stadt Leipzig",12.48306,51.29833
"04289","Leipzig","Sachsen","Kreisfreie Stadt Leipzig",12.44111,51.30056
"04299","Leipzig","Sachsen","Kreisfreie Stadt Leipzig",12.41806,51.32333
"04315","Leipzig","Sachsen","Kreisfreie Stadt Leipzig",12.41083,51.34444
"04316","Leipzig","Sachsen","Kreisfreie Stadt Leipzig",12.47639,51.33639
"04317","Leipzig","Sachsen","Kreisfreie Stadt Leipzig",12.39694,51.33556
"04318","Leipzig","Sachsen","Kreisfreie Stadt Leipzig",12.41667,51.355
"04319","Leipzig","Sachsen","Kreisfreie Stadt Leipzig",12.48194,51.32556
"04328","Leipzig","Sachsen","Kreisfreie Stadt Leipzig",12.43306,51.39306
"04329","Leipzig","Sachsen","Kreisfreie Stadt Leipzig",12.45639,51.36639
"04347","Leipzig","Sachsen","Kreisfreie Stadt Leipzig",12.41583,51.36583
"04349","Leipzig","Sachsen","Kreisfreie Stadt Leipzig",12.45306,51.38306
"04356","Leipzig","Sachsen","Kreisfreie Stadt Leipzig",12.40806,51.41167
"04357","Leipzig","Sachsen","Kreisfreie Stadt Leipzig",12.39111,51.38611
"04416","Markkleeberg","Sachsen","Landkreis Leipzig",12.36667,51.28333
"04420","Markranstädt","Sachsen","Landkreis Leipzig",12.21667,51.3
"04425","Taucha","Sachsen","Landkreis Nordsachsen",12.5,51.38333
"04435","Schkeuditz","Sachsen","Landkreis Nordsachsen",12.21667,51.4
"04442","Zwenkau","Sachsen","Landkreis Leipzig",12.31667,51.21667
"04463","Großpösna","Sachsen","Landkreis Leipzig",12.5,51.26667
"04509","Delitzsch","Sachsen","Landkreis Nordsachsen",12.35,51.51667
"04523","Pegau","Sachsen","Landkreis Leipzig",12.25,51.16667
"04539","Groitzsch","Sachsen","Landkreis Leipzig",12.28333,51.15
"04552","Borna","Sachsen","Landkreis Leipzig",12.5,51.11667
"04564","Böhlen","Sachsen","Landkreis Leipzig",12.38333,51.2
"04565","Regis-Breitingen","Sachsen","Landkreis Leipzig",12.45,51.08333
"04567","Kitzscher","Sachsen","Landkreis Leipzig",12.55,51.16667
"04571","Rötha","Sachsen","Landkreis Leipzig",12.41667,51.2
"04575","Neukieritzsch","Sachsen","Landkreis Leipzig",12.4,51.15
"04600","Altenburg","Thüringen","Landkreis Altenburger Land",12.43333,50.98333
"04603","Nobitz","Thüringen","Landkreis Altenburger Land",12.5,50.95
"04610","Meuselwitz","Thüringen","Landkreis Altenburger Land",12.3,51.05
"04613","Langenleuba-Niederhain","Thüringen","Landkreis Altenburger Land",12.56667,50.98333
"04617","Starkenberg","Thüringen","Landkreis Altenburger Land",12.31667,51
"04618","Löbichau","Thüringen","Landkreis Altenburger Land",12.23333,50.91667
"04626","Schmölln","Thüringen","Landkreis Altenburger Land",12.35,50.9
"04639","Göpfersdorf","Thüringen","Landkreis Altenburger Land",12.66667,50.96667
"04643","Geithain","Sachsen","Landkreis Leipzig",12.7,51.05
"04651","Bad Lausick","Sachsen","Landkreis Leipzig",12.65,51.15
"04654","Frohburg","Sachsen","Landkreis Leipzig",12.55,51.05
"04655","Kohren-Sahlis","Sachsen","Landkreis Leipzig",12.6,51.01667
"04668","Grimma","Sachsen","Landkreis Leipzig",12.71667,51.23333
"04680","Colditz","Sachsen","Landkreis Leipzig",12.81667,51.13333
"04683","Naunhof","Sachsen","Landkreis Leipzig",12.58333,51.28333
"04687","Trebsen/Mulde","Sachsen","Landkreis Leipzig",12.65,51.26667
"04703","Leisnig","Sachsen","Landkreis Mittelsachsen",12.93333,51.16667
"04720","Döbeln","Sachsen","Landkreis Mittelsachsen",13.11667,51.11667
"04736","Waldheim","Sachsen","Landkreis Mittelsachsen",13.01667,51.06667
"04741","Roßwein","Sachsen","Landkreis Mittelsachsen",13.18333,51.06667
"04746","Hartha","Sachsen","Landkreis Mittelsachsen",12.98333,51.1
"04749","Ostrau","Sachsen","Landkreis Mittelsachsen",13.16667,51.21667
"04758","Oschatz","Sachsen","Landkreis Nordsachsen",13.11667,51.3
"04769","Mügeln","Sachsen","Landkreis Nordsachsen",13.05,51.23333
"04774","Dahlen","Sachsen","Landkreis Nordsachsen",12.98333,51.36667
"04779","Wermsdorf","Sachsen","Landkreis Nordsachsen",12.93333,51.28333
"04808","Wurzen","Sachsen","Landkreis Leipzig",12.73333,51.36667
"04821","Brandis","Sachsen","Landkreis Leipzig",12.61667,51.33333
"04824","Beilrode","Sachsen","Landkreis Nordsachsen",13.01667,51.56667
"04827","Machern","Sachsen","Landkreis Leipzig",12.63333,51.35
"0.1909","Frankenthal","Sachsen","Landkreis Bautzen",14.1,51.15
"04838","Eilenburg","Sachsen","Landkreis Nordsachsen",12.63333,51.46667
"04849","Bad Düben","Sachsen","Landkreis Nordsachsen",12.58333,51.58333
"04860","Torgau","Sachsen","Landkreis Nordsachsen",13.005,51.55944
"04862","Mockrehna","Sachsen","Landkreis Nordsachsen",12.8,51.5
"04874","Belgern-Schildau","Sachsen","Landkreis Nordsachsen",13.11667,51.51667
"04880","Dommitzsch","Sachsen","Landkreis Nordsachsen",12.88333,51.63333
"04886","Arzberg","Sachsen","Landkreis Nordsachsen",13.13333,51.56667
"04889","Schildau","Sachsen","Landkreis Nordsachsen",12.93333,51.45
"04895","Falkenberg/Elster","Brandenburg","Landkreis Elbe-Elster",13.23333,51.58333
"04910","Elsterwerda","Brandenburg","Landkreis Elbe-Elster",13.51667,51.46667
"04916","Herzberg (Elster)","Brandenburg","Landkreis Elbe-Elster",13.23333,51.68333
"04924","Bad Liebenwerda","Brandenburg","Landkreis Elbe-Elster",13.4,51.51667
"04928","Schraden","Brandenburg","Landkreis Elbe-Elster",13.6,51.43333
"04931","Mühlberg/Elbe","Brandenburg","Landkreis Elbe-Elster",13.21667,51.43333
"04932","Gröden","Brandenburg","Landkreis Elbe-Elster",13.56667,51.41667
"04934","Hohenleipisch","Brandenburg","Landkreis Elbe-Elster",13.55,51.48333
"04936","Schlieben","Brandenburg","Landkreis Elbe-Elster",13.38333,51.71667
"04938","Uebigau-Wahrenbrück","Brandenburg","Landkreis Elbe-Elster",13.31667,51.56667
"06108","Halle (Saale)","Sachsen-Anhalt","Kreisfreie Stadt Halle (Saale)",11.96667,51.48333
"06110","Halle (Saale)","Sachsen-Anhalt","Kreisfreie Stadt Halle (Saale)",11.96667,51.48333
"06112","Halle (Saale)","Sachsen-Anhalt","Kreisfreie Stadt Halle (Saale)",11.96667,51.48333
"06114","Halle (Saale)","Sachsen-Anhalt","Kreisfreie Stadt Halle (Saale)",11.96667,51.48333
"06116","Halle (Saale)","Sachsen-Anhalt","Kreisfreie Stadt Halle (Saale)",11.96667,51.48333
"06118","Halle (Saale)","Sachsen-Anhalt","Kreisfreie Stadt Halle (Saale)",11.96667,51.48333
"06120","Halle (Saale)","Sachsen-Anhalt","Kreisfreie Stadt Halle (Saale)",11.96667,51.48333
"06122","Halle (Saale)","Sachsen-Anhalt","Kreisfreie Stadt Halle (Saale)",11.96667,51.48333
"06124","Halle (Saale)","Sachsen-Anhalt","Kreisfreie Stadt Halle (Saale)",11.96667,51.48333
"06126","Halle (Saale)","Sachsen-Anhalt","Kreisfreie Stadt Halle (Saale)",11.96667,51.48333
"06128","Halle (Saale)","Sachsen-Anhalt","Kreisfreie Stadt Halle (Saale)",11.96667,51.48333
"06130","Halle (Saale)","Sachsen-Anhalt","Kreisfreie Stadt Halle (Saale)",11.96667,51.48333
"06132","Halle (Saale)","Sachsen-Anhalt","Kreisfreie Stadt Halle (Saale)",11.96667,51.48333
"06179","Teutschenthal","Sachsen-Anhalt","Saalekreis",11.78333,51.45
"06184","Kabelsketal","Sachsen-Anhalt","Saalekreis",12.11667,51.45
"06186","Petersberg","Sachsen-Anhalt","Saalekreis",11.9,51.6
"06188","Landsberg","Sachsen-Anhalt","Saalekreis",12.16667,51.51667
"06193","Wettin-Löbejün","Sachsen-Anhalt","Saalekreis",11.81667,51.63333
"06198","Wettin","Sachsen-Anhalt","Saalekreis",11.81667,51.58333
"06217","Merseburg","Sachsen-Anhalt","Saalekreis",12,51.35
"06231","Bad Dürrenberg","Sachsen-Anhalt","Saalekreis",12.06667,51.3
"06237","Leuna","Sachsen-Anhalt","Saalekreis",12.01667,51.31667
"06242","Braunsbedra","Sachsen-Anhalt","Saalekreis",11.9,51.28333
"06246","Bad Lauchstädt","Sachsen-Anhalt","Saalekreis",11.86667,51.38333
"06249","Mücheln (Geiseltal)","Sachsen-Anhalt","Saalekreis",11.8,51.3
"06255","Mücheln (Geiseltal)","Sachsen-Anhalt","Saalekreis",11.8,51.3
"06258","Schkopau","Sachsen-Anhalt","Saalekreis",11.98333,51.38333
"06259","Frankleben","Sachsen-Anhalt","Saalekreis",11.91667,51.33333
"06268","Querfurt","Sachsen-Anhalt","Saalekreis",11.6,51.38333
"06279","Farnstädt","Sachsen-Anhalt","Saalekreis",11.56667,51.41667
"06295","Lutherstadt Eisleben","Sachsen-Anhalt","Landkreis Mansfeld-Südharz",11.55,51.51667
"06308","Benndorf","Sachsen-Anhalt","Landkreis Mansfeld-Südharz",11.48333,51.53333
"06311","Helbra","Sachsen-Anhalt","Landkreis Mansfeld-Südharz",11.48333,51.53333
"06313","Ahlsdorf","Sachsen-Anhalt","Landkreis Mansfeld-Südharz",11.51667,51.53333
"06317","Seegebiet Mansfelder Land","Sachsen-Anhalt","Landkreis Mansfeld-Südharz",11.7,51.5
"06333","Hettstedt","Sachsen-Anhalt","Landkreis Mansfeld-Südharz",11.5,51.65
"06343","Mansfeld","Sachsen-Anhalt","Landkreis Mansfeld-Südharz",11.45,51.58333
"06347","Gerbstedt","Sachsen-Anhalt","Landkreis Mansfeld-Südharz",11.63333,51.63333
"06366","Köthen (Anhalt)","Sachsen-Anhalt","Landkreis Anhalt-Bitterfeld",11.96667,51.75
"06369","Südliches Anhalt","Sachsen-Anhalt","Landkreis Anhalt-Bitterfeld",11.93333,51.66667
"06385","Aken (Elbe)","Sachsen-Anhalt","Landkreis Anhalt-Bitterfeld",11.85,51.85
"06386","Osternienburger Land","Sachsen-Anhalt","Landkreis Anhalt-Bitterfeld",11.93333,51.83333
"06388","Gröbzig","Sachsen-Anhalt","Landkreis Anhalt-Bitterfeld",11.83333,51.68333
"06406","Bernburg (Saale)","Sachsen-Anhalt","Salzlandkreis",11.73333,51.8
"06408","Ilberstedt","Sachsen-Anhalt","Salzlandkreis",11.7,51.81667
"06420","Könnern","Sachsen-Anhalt","Salzlandkreis",11.76667,51.66667
"06425","Alsleben (Saale)","Sachsen-Anhalt","Salzlandkreis",11.68333,51.7
"06429","Nienburg (Saale)","Sachsen-Anhalt","Salzlandkreis",11.76667,51.83333
"06449","Aschersleben","Sachsen-Anhalt","Salzlandkreis",11.45,51.75
"06463","Falkenstein/Harz","Sachsen-Anhalt","Landkreis Harz",11.33333,51.73333
"06466","Seeland","Sachsen-Anhalt","Salzlandkreis",11.33333,51.78333
"06467","Stadt Seeland","Sachsen-Anhalt","Salzlandkreis",11.33333,51.78333
"06469","Nachterstedt","Sachsen-Anhalt","Salzlandkreis",11.35,51.8
"06484","Quedlinburg","Sachsen-Anhalt","Landkreis Harz",11.14111,51.79139
"06485","Harzgerode","Sachsen-Anhalt","Landkreis Harz",11.15,51.63333
"06493","Ballenstedt","Sachsen-Anhalt","Landkreis Harz",11.23333,51.71667
"06502","Thale","Sachsen-Anhalt","Landkreis Harz",11.05,51.75
"06507","Gernrode","Sachsen-Anhalt","Landkreis Harz",11.13333,51.73333
"06526","Sangerhausen","Sachsen-Anhalt","Landkreis Mansfeld-Südharz",11.3,51.46667
"06528","Südharz","Sachsen-Anhalt","Landkreis Mansfeld-Südharz",10.95,51.53333
"06536","Südharz","Sachsen-Anhalt","Landkreis Mansfeld-Südharz",10.95,51.53333
"06537","Kelbra (Kyffhäuser)","Sachsen-Anhalt","Landkreis Mansfeld-Südharz",11.03333,51.43333
"06542","Allstedt","Sachsen-Anhalt","Landkreis Mansfeld-Südharz",11.41667,51.4
"06543","Arnstein","Sachsen-Anhalt","Landkreis Mansfeld-Südharz",11.48333,51.7
"06556","Artern/Unstrut","Thüringen","Kyffhäuserkreis",11.28333,51.36667
"06567","Bad Frankenhausen/Kyffhäuser","Thüringen","Kyffhäuserkreis",11.1,51.35
"06571","Roßleben","Thüringen","Kyffhäuserkreis",11.43333,51.28333
"06577","An der Schmücke","Thüringen","Kyffhäuserkreis",11.23333,51.25
"06578","Kindelbrück","Thüringen","Landkreis Sömmerda",11.08333,51.26667
"06618","Naumburg (Saale)","Sachsen-Anhalt","Burgenlandkreis",11.81667,51.15
"06628","Bad Kösen","Sachsen-Anhalt","Burgenlandkreis",11.71667,51.13333
"06632","Freyburg (Unstrut)","Sachsen-Anhalt","Burgenlandkreis",11.76667,51.21667
"06636","Laucha an der Unstrut","Sachsen-Anhalt","Burgenlandkreis",11.68333,51.21667
"06638","Karsdorf","Sachsen-Anhalt","Burgenlandkreis",11.65,51.28333
"06642","Nebra (Unstrut)","Sachsen-Anhalt","Burgenlandkreis",11.58333,51.28333
"06647","An der Poststraße","Sachsen-Anhalt","Burgenlandkreis",11.61667,51.11667
"06648","Eckartsberga","Sachsen-Anhalt","Burgenlandkreis",11.56667,51.13333
"06667","Weißenfels","Sachsen-Anhalt","Burgenlandkreis",11.96667,51.2
"06679","Hohenmölsen","Sachsen-Anhalt","Burgenlandkreis",12.1,51.15
"06682","Teuchern","Sachsen-Anhalt","Burgenlandkreis",12.01667,51.11667
"06686","Lützen","Sachsen-Anhalt","Burgenlandkreis",12.13333,51.25
"06688","Weißenfels","Sachsen-Anhalt","Burgenlandkreis",11.96667,51.2
"06711","Zeitz","Sachsen-Anhalt","Burgenlandkreis",12.13333,51.05
"06712","Gutenborn","Sachsen-Anhalt","Burgenlandkreis",12.11667,51
"06721","Meineweh","Sachsen-Anhalt","Burgenlandkreis",11.93333,51.05
"06722","Droyßig","Sachsen-Anhalt","Burgenlandkreis",12.03333,51.05
"06724","Kayna","Sachsen-Anhalt","Burgenlandkreis",12.2,51.03333
"06725","Geußnitz","Sachsen-Anhalt","Burgenlandkreis",12.2,51.06667
"06727","Theißen","Sachsen-Anhalt","Burgenlandkreis",12.1,51.08333
"06729","Elsteraue","Sachsen-Anhalt","Burgenlandkreis",12.25,51.06667
"06749","Bitterfeld-Wolfen","Sachsen-Anhalt","Landkreis Anhalt-Bitterfeld",12.31667,51.61667
"06766","Bitterfeld-Wolfen","Sachsen-Anhalt","Landkreis Anhalt-Bitterfeld",12.31667,51.61667
"06772","Gräfenhainichen","Sachsen-Anhalt","Landkreis Wittenberg",12.45,51.73333
"06773","Gräfenhainichen","Sachsen-Anhalt","Landkreis Wittenberg",12.45,51.73333
"06774","Tornau v d Heide","Sachsen-Anhalt","Landkreis Wittenberg",12.51667,51.68333
"06780","Zörbig","Sachsen-Anhalt","Landkreis Anhalt-Bitterfeld",12.11667,51.61667
"06785","Oranienbaum-Wörlitz","Sachsen-Anhalt","Landkreis Wittenberg",12.4,51.8
"06792","Sandersdorf-Brehna","Sachsen-Anhalt","Landkreis Anhalt-Bitterfeld",12.23333,51.53333
"06794","Sandersdorf-Brehna","Sachsen-Anhalt","Landkreis Anhalt-Bitterfeld",12.23333,51.53333
"06800","Sandersdorf-Brehna","Sachsen-Anhalt","Landkreis Anhalt-Bitterfeld",12.23333,51.53333
"06808","Sandersdorf-Brehna","Sachsen-Anhalt","Landkreis Anhalt-Bitterfeld",12.23333,51.53333
"06842","Dessau-Roßlau","Sachsen-Anhalt","Kreisfreie Stadt Dessau-Roßlau",12.24472,51.83833
"06844","Dessau-Roßlau","Sachsen-Anhalt","Kreisfreie Stadt Dessau-Roßlau",12.24472,51.83833
"06846","Dessau-Roßlau","Sachsen-Anhalt","Kreisfreie Stadt Dessau-Roßlau",12.24472,51.83833
"06847","Dessau-Roßlau","Sachsen-Anhalt","Kreisfreie Stadt Dessau-Roßlau",12.24472,51.83833

... (9162 more lines)
